IRIDIUM 159             
1 43578U 18061K   26010.87822248 -.00000014  00000+0 -12233-4 0  9994
2 43578  86.3989 122.4965 0001822  99.1314 261.0088 14.34217667390830
IRIDIUM 180             
1 43922U 19002A   26010.87771953  .00000074  00000+0  19189-4 0  9990
2 43922  86.3941  59.3554 0002122  96.8156 263.3281 14.34217545366440
IRIDIUM 176             
1 43923U 19002B   26010.60984828  .00001054  00000+0  16323-3 0  9994
2 43923  86.6061  59.4340 0002397  96.0447 264.1044 14.72259235376069
IRIDIUM 168             
1 43924U 19002C   26010.87137093  .00000138  00000+0  42228-4 0  9994
2 43924  86.3939  59.4311 0002225  94.9454 265.1996 14.34216414366420
IRIDIUM 173             
1 43925U 19002D   26010.85868470  .00000254  00000+0  83556-4 0  9991
2 43925  86.3938  59.3316 0002344  97.6206 262.5256 14.34220931366408
IRIDIUM 169             
1 43926U 19002E   26010.91709442 -.00000434  00000+0 -14843-3 0  9996
2 43926  86.4211  90.9660 0002966 100.6652 259.4881 14.38606554367613
IRIDIUM 172             
1 43927U 19002F   26010.85234776  .00000111  00000+0  32499-4 0  9991
2 43927  86.3939  59.3418 0002052  97.7730 262.3699 14.34218481366410
IRIDIUM 175             
1 43928U 19002G   26010.94503672  .00001080  00000+0  16739-3 0  9990
2 43928  86.1507   0.0499 0002676  64.2583 295.8909 14.72245273376102
